start=new Date('2023-07-02T00:00:00.000Z').valueOf();
sats=[{"CENTER_NAME":"EARTH","GP_ID":"234658482","FILE":"3947101","DECAY_DATE":null,"EPOCH":"2023-07-01T15:35:54.862656","PERIAPSIS":"539.126","RA_OF_ASC_NODE":"312.4590","INCLINATION":"53.2170","APOAPSIS":"540.376","TLE_LINE2":"2 53639  53.2170 312.4590 0000904  83.9410 276.1685 15.08838125 46958","OBJECT_NAME":"STARLINK-4422","SITE":"AFETR","PERIOD":"95.438","TLE_LINE1":"1 53639U 22104BD  23182.64994054  .00000663  00000-0  59708-4 0  9990","SEMIMAJOR_AXIS":"6917.886","CLASSIFICATION_TYPE":"U","MEAN_MOTION_DOT":"0.00000663","COUNTRY_CODE":"US","LAUNCH_DATE":"2022-08-28","MEAN_MOTION":"15.08838125","MEAN_ANOMALY":"276.1685","RCS_SIZE":"LARGE","ELEMENT_SET_NO":"999","EPHEMERIS_TYPE":"0","MEAN_ELEMENT_THEORY":"SGP4","MEAN_MOTION_DDOT":"0.0000000000000","BSTAR":"0.00005970800000","REV_AT_EPOCH":"4695","REF_FRAME":"TEME","OBJECT_ID":"2022-104BD","ECCENTRICITY":"0.00009040","TIME_SYSTEM":"UTC","OBJECT_TYPE":"PAYLOAD","ARG_OF_PERICENTER":"83.9410","NORAD_CAT_ID":"53639"},{"REF_FRAME":"TEME","OBJECT_ID":"2022-104BE","ECCENTRICITY":"0.00009570","TIME_SYSTEM":"UTC","OBJECT_TYPE":"PAYLOAD","ARG_OF_PERICENTER":"95.1793","NORAD_CAT_ID":"53640","RCS_SIZE":"LARGE","ELEMENT_SET_NO":"999","EPHEMERIS_TYPE":"0","MEAN_ELEMENT_THEORY":"SGP4","MEAN_MOTION_DDOT":"0.0000000000000","BSTAR":"-0.00013331000000","REV_AT_EPOCH":"4696","SITE":"AFETR","PERIOD":"95.439","SEMIMAJOR_AXIS":"6917.943","TLE_LINE1":"1 53640U 22104BE  23182.71251297 -.00002407  00000-0 -13331-3 0  9996","CLASSIFICATION_TYPE":"U","MEAN_MOTION_DOT":"-0.00002407","COUNTRY_CODE":"US","LAUNCH_DATE":"2022-08-28","MEAN_MOTION":"15.08819571","MEAN_ANOMALY":"264.9309","CENTER_NAME":"EARTH","GP_ID":"234658486","FILE":"3947101","DECAY_DATE":null,"EPOCH":"2023-07-01T17:06:01.120608","PERIAPSIS":"539.146","RA_OF_ASC_NODE":"312.1357","INCLINATION":"53.2189","APOAPSIS":"540.470","TLE_LINE2":"2 53640  53.2189 312.1357 0000957  95.1793 264.9309 15.08819571 46968","OBJECT_NAME":"STARLINK-4597"},{"EPHEMERIS_TYPE":"0","ELEMENT_SET_NO":"999","RCS_SIZE":"LARGE","REV_AT_EPOCH":"4691","BSTAR":"0.00004369600000","MEAN_MOTION_DDOT":"0.0000000000000","MEAN_ELEMENT_THEORY":"SGP4","ARG_OF_PERICENTER":"84.3114","OBJECT_TYPE":"PAYLOAD","TIME_SYSTEM":"UTC","ECCENTRICITY":"0.00011330","OBJECT_ID":"2022-104BF","REF_FRAME":"TEME","NORAD_CAT_ID":"53641","PERIAPSIS":"538.970","EPOCH":"2023-07-01T09:03:45.444384","FILE":"3946831","GP_ID":"234651523","DECAY_DATE":null,"CENTER_NAME":"EARTH","OBJECT_NAME":"STARLINK-4588","TLE_LINE2":"2 53641  53.2164 313.6004 0001133  84.3114 275.8008 15.08837152 46918","APOAPSIS":"540.538","RA_OF_ASC_NODE":"313.6004","INCLINATION":"53.2164","CLASSIFICATION_TYPE":"U","SEMIMAJOR_AXIS":"6917.889","TLE_LINE1":"1 53641U 22104BF  23182.37760931  .00000408  00000-0  43696-4 0  9994","PERIOD":"95.438","SITE":"AFETR","MEAN_ANOMALY":"275.8008","MEAN_MOTION":"15.08837152","LAUNCH_DATE":"2022-08-28","COUNTRY_CODE":"US","MEAN_MOTION_DOT":"0.00000408"},{"LAUNCH_DATE":"2022-08-31","MEAN_MOTION":"15.01260849","MEAN_ANOMALY":"260.5160","MEAN_MOTION_DOT":"0.00000672","COUNTRY_CODE":"US","SEMIMAJOR_AXIS":"6941.144","TLE_LINE1":"1 53648U 22105A   23182.72224084  .00000672  00000-0  56898-4 0  9996","CLASSIFICATION_TYPE":"U","SITE":"AFWTR","PERIOD":"95.919","OBJECT_NAME":"STARLINK-4622","INCLINATION":"97.6556","RA_OF_ASC_NODE":"63.5746","APOAPSIS":"564.225","TLE_LINE2":"2 53648  97.6556  63.5746 0001752  99.6262 260.5160 15.01260849 46204","CENTER_NAME":"EARTH","GP_ID":"234658947","DECAY_DATE":null,"FILE":"3947126","EPOCH":"2023-07-01T17:20:01.608576","PERIAPSIS":"561.793","NORAD_CAT_ID":"53648","OBJECT_TYPE":"PAYLOAD","ARG_OF_PERICENTER":"99.6262","REF_FRAME":"TEME","ECCENTRICITY":"0.00017520","OBJECT_ID":"2022-105A","TIME_SYSTEM":"UTC","MEAN_MOTION_DDOT":"0.0000000000000","BSTAR":"0.00005689800000","REV_AT_EPOCH":"4620","MEAN_ELEMENT_THEORY":"SGP4","ELEMENT_SET_NO":"999","EPHEMERIS_TYPE":"0","RCS_SIZE":"LARGE"},{"PERIAPSIS":"561.999","EPOCH":"2023-07-01T06:05:30.435072","FILE":"3946836","GP_ID":"234651610","DECAY_DATE":null,"CENTER_NAME":"EARTH","TLE_LINE2":"2 53649  97.6556  63.1123 0001489 107.5022 252.6365 15.01253297 46118","APOAPSIS":"564.066","RA_OF_ASC_NODE":"63.1123","INCLINATION":"97.6556","OBJECT_NAME":"STARLINK-4386","PERIOD":"95.920","SITE":"AFWTR","CLASSIFICATION_TYPE":"U","TLE_LINE1":"1 53649U 22105B   23182.25382448 -.00000011  00000-0  37314-5 0  9995","SEMIMAJOR_AXIS":"6941.168","COUNTRY_CODE":"US","MEAN_MOTION_DOT":"-0.00000011","MEAN_ANOMALY":"252.6365","MEAN_MOTION":"15.01253297","LAUNCH_DATE":"2022-08-31","RCS_SIZE":"LARGE","EPHEMERIS_TYPE":"0","ELEMENT_SET_NO":"999","MEAN_ELEMENT_THEORY":"SGP4","REV_AT_EPOCH":"4611","BSTAR":"0.00000373140000","MEAN_MOTION_DDOT":"0.0000000000000","TIME_SYSTEM":"UTC","ECCENTRICITY":"0.00014890","OBJECT_ID":"2022-105B","REF_FRAME":"TEME","ARG_OF_PERICENTER":"107.5022","OBJECT_TYPE":"PAYLOAD","NORAD_CAT_ID":"53649"},{"EPOCH":"2023-07-01T09:14:47.833440","PERIAPSIS":"562.020","CENTER_NAME":"EARTH","GP_ID":"234651798","FILE":"3946836","DECAY_DATE":null,"APOAPSIS":"564.030","TLE_LINE2":"2 53650  97.6554  63.2418 0001448 100.7585 259.3803 15.01255786 46138","INCLINATION":"97.6554","RA_OF_ASC_NODE":"63.2418","OBJECT_NAME":"STARLINK-4380","PERIOD":"95.920","SITE":"AFWTR","CLASSIFICATION_TYPE":"U","SEMIMAJOR_AXIS":"6941.160","TLE_LINE1":"1 53650U 22105C   23182.38527585  .00000521  00000-0  45148-4 0  9992","COUNTRY_CODE":"US","MEAN_MOTION_DOT":"0.00000521","MEAN_ANOMALY":"259.3803","LAUNCH_DATE":"2022-08-31","MEAN_MOTION":"15.01255786","RCS_SIZE":"LARGE","ELEMENT_SET_NO":"999","EPHEMERIS_TYPE":"0","MEAN_ELEMENT_THEORY":"SGP4","BSTAR":"0.00004514800000","REV_AT_EPOCH":"4613","MEAN_MOTION_DDOT":"0.0000000000000","TIME_SYSTEM":"UTC","REF_FRAME":"TEME","OBJECT_ID":"2022-105C","ECCENTRICITY":"0.00014480","OBJECT_TYPE":"PAYLOAD","ARG_OF_PERICENTER":"100.7585","NORAD_CAT_ID":"53650"},{"CENTER_NAME":"EARTH","GP_ID":"234651608","DECAY_DATE":null,"FILE":"3946836","EPOCH":"2023-07-01T09:12:07.938144","PERIAPSIS":"562.145","OBJECT_NAME":"STARLINK-4388","RA_OF_ASC_NODE":"63.2396","INCLINATION":"97.6552","APOAPSIS":"563.897","TLE_LINE2":"2 53651  97.6552  63.2396 0001262 102.8548 257.2818 15.01257145 46132","SEMIMAJOR_AXIS":"6941.156","TLE_LINE1":"1 53651U 22105D   23182.38342521  .00000273  00000-0  25863-4 0  9994","CLASSIFICATION_TYPE":"U","SITE":"AFWTR","PERIOD":"95.920","LAUNCH_DATE":"2022-08-31","MEAN_MOTION":"15.01257145","MEAN_ANOMALY":"257.2818","MEAN_MOTION_DOT":"0.00000273","COUNTRY_CODE":"US","ELEMENT_SET_NO":"999","EPHEMERIS_TYPE":"0","RCS_SIZE":"LARGE","MEAN_MOTION_DDOT":"0.0000000000000","BSTAR":"0.00002586300000","REV_AT_EPOCH":"4613","MEAN_ELEMENT_THEORY":"SGP4","OBJECT_TYPE":"PAYLOAD","ARG_OF_PERICENTER":"102.8548","REF_FRAME":"TEME","OBJECT_ID":"2022-105D","ECCENTRICITY":"0.00012620","TIME_SYSTEM":"UTC","NORAD_CAT_ID":"53651"},{"COUNTRY_CODE":"US","MEAN_MOTION_DOT":"0.00000444","MEAN_ANOMALY":"251.4465","LAUNCH_DATE":"2022-08-31","MEAN_MOTION":"15.01256620","PERIOD":"95.920","SITE":"AFWTR","CLASSIFICATION_TYPE":"U","SEMIMAJOR_AXIS":"6941.157","TLE_LINE1":"1 53652U 22105E   23182.38157138  .00000444  00000-0  39178-4 0  9997","APOAPSIS":"563.678","TLE_LINE2":"2 53652  97.6553  63.2370 0000944 108.6862 251.4465 15.01256620 46136","INCLINATION":"97.6553","RA_OF_ASC_NODE":"63.2370","OBJECT_NAME":"STARLINK-4374","EPOCH":"2023-07-01T09:09:27.767232","PERIAPSIS":"562.367","CENTER_NAME":"EARTH","GP_ID":"234651791","DECAY_DATE":null,"FILE":"3946836","NORAD_CAT_ID":"53652","TIME_SYSTEM":"UTC","REF_FRAME":"TEME","ECCENTRICITY":"0.00009440","OBJECT_ID":"2022-105E","OBJECT_TYPE":"PAYLOAD","ARG_OF_PERICENTER":"108.6862","MEAN_ELEMENT_THEORY":"SGP4","BSTAR":"0.00003917800000","REV_AT_EPOCH":"4613","MEAN_MOTION_DDOT":"0.0000000000000","RCS_SIZE":"LARGE","ELEMENT_SET_NO":"999","EPHEMERIS_TYPE":"0"},{"MEAN_ELEMENT_THEORY":"SGP4","MEAN_MOTION_DDOT":"0.0000000000000","BSTAR":"0.00005911100000","REV_AT_EPOCH":"4611","RCS_SIZE":"LARGE","ELEMENT_SET_NO":"999","EPHEMERIS_TYPE":"0","NORAD_CAT_ID":"53653","REF_FRAME":"TEME","OBJECT_ID":"2022-105F","ECCENTRICITY":"0.00009300","TIME_SYSTEM":"UTC","OBJECT_TYPE":"PAYLOAD","ARG_OF_PERICENTER":"192.3197","RA_OF_ASC_NODE":"63.1114","INCLINATION":"97.6554","APOAPSIS":"563.666","TLE_LINE2":"2 53653  97.6554  63.1114 0000930 192.3197 167.8005 15.01257066 46112","OBJECT_NAME":"STARLINK-4390","CENTER_NAME":"EARTH","GP_ID":"234652002","DECAY_DATE":null,"FILE":"3946852","EPOCH":"2023-07-01T05:46:49.946304","PERIAPSIS":"562.375","MEAN_MOTION_DOT":"0.00000700","COUNTRY_CODE":"US","LAUNCH_DATE":"2022-08-31","MEAN_MOTION":"15.01257066","MEAN_ANOMALY":"167.8005","SITE":"AFWTR","PERIOD":"95.920","SEMIMAJOR_AXIS":"6941.156","TLE_LINE1":"1 53653U 22105F   23182.24085586  .00000700  00000-0  59111-4 0  9994","CLASSIFICATION_TYPE":"U"},{"ARG_OF_PERICENTER":"175.7643","OBJECT_TYPE":"PAYLOAD","OBJECT_ID":"2022-105G","ECCENTRICITY":"0.00006810","REF_FRAME":"TEME","TIME_SYSTEM":"UTC","NORAD_CAT_ID":"53654","EPHEMERIS_TYPE":"0","ELEMENT_SET_NO":"999","RCS_SIZE":"LARGE","MEAN_MOTION_DDOT":"0.0000000000000","REV_AT_EPOCH":"4611","BSTAR":"0.00004924900000","MEAN_ELEMENT_THEORY":"SGP4","SEMIMAJOR_AXIS":"6941.158","TLE_LINE1":"1 53654U 22105G   23182.24270959  .00000574  00000-0  49249-4 0  9995","CLASSIFICATION_TYPE":"U","SITE":"AFWTR","PERIOD":"95.920","MEAN_MOTION":"15.01256534","LAUNCH_DATE":"2022-08-31","MEAN_ANOMALY":"184.3587","MEAN_MOTION_DOT":"0.00000574","COUNTRY_CODE":"US","FILE":"3946852","GP_ID":"234652014","DECAY_DATE":null,"CENTER_NAME":"EARTH","PERIAPSIS":"562.550","EPOCH":"2023-07-01T05:49:30.108576","OBJECT_NAME":"STARLINK-4420","RA_OF_ASC_NODE":"63.0994","INCLINATION":"97.6555","TLE_LINE2":"2 53654  97.6555  63.0994 0000681 175.7643 184.3587 15.01256534 46111","APOAPSIS":"563.495"}];
